[{"OBJECT_NAME":"STARLINK-3140","OBJECT_ID":"2021-104BE","EPOCH":"2026-03-09T15:36:24.920352","MEAN_MOTION":15.0883812,"ECCENTRICITY":0.0001125,"INCLINATION":53.2156,"RA_OF_ASC_NODE":219.2981,"ARG_OF_PERICENTER":89.4741,"MEAN_ANOMALY":270.638,"EPHEMERIS_TYPE":0,"CLASSIFICATION_TYPE":"U","NORAD_CAT_ID":49460,"ELEMENT_SET_NO":999,"REV_AT_EPOCH":23876,"BSTAR":2.1335e-5,"MEAN_MOTION_DOT":5.2e-7,"MEAN_MOTION_DDOT":0},{"OBJECT_NAME":"YUNYAO-1 44","OBJECT_ID":"2025-059B","EPOCH":"2026-03-09T23:37:33.233088","MEAN_MOTION":15.10344945,"ECCENTRICITY":0.00180831,"INCLINATION":97.6069,"RA_OF_ASC_NODE":250.8958,"ARG_OF_PERICENTER":135.5449,"MEAN_ANOMALY":224.7236,"EPHEMERIS_TYPE":0,"CLASSIFICATION_TYPE":"U","NORAD_CAT_ID":63345,"ELEMENT_SET_NO":999,"REV_AT_EPOCH":5332,"BSTAR":0.0003556422,"MEAN_MOTION_DOT":5.791e-5,"MEAN_MOTION_DDOT":0}]
